IRIDIUM 36 [-]          
1 24967U 97056C   23264.43137244  .00000800  00000+0  26665-3 0  9995
2 24967  86.3912  79.4885 0001850  90.1012 270.0397 14.36400093361061
IRIDIUM 39 [-]          
1 25042U 97069D   23263.67816243  .00000798  00000+0  21216-3 0  9995
2 25042  86.3901 123.3081 0016394 266.9386  92.9941 14.47355956356987
IRIDIUM 38 [-]          
1 25043U 97069E   23263.75866214  .00000598  00000+0  19570-3 0  9996
2 25043  86.3983 140.2852 0003927  62.0585 298.1010 14.36878873354673
IRIDIUM 42 [-]          
1 25077U 97077A   23263.77109342  .00000594  00000+0  20105-3 0  9998
2 25077  86.3999 145.6712 0002579  72.8205 287.3273 14.35195174350022
IRIDIUM 44 [-]          
1 25078U 97077B   23263.75244578  .00000614  00000+0  19274-3 0  9996
2 25078  86.3952 129.3227 0001751  26.9411 333.1878 14.38978170352281
IRIDIUM 45 [-]          
1 25104U 97082A   23263.72539490  .00017472  00000+0  11339-2 0  9992
2 25104  86.3818 348.4025 0183401 137.0287 224.5438 14.95056540356347
IRIDIUM 24 [-]          
1 25105U 97082B   23264.31129478  .00000814  00000+0  24851-3 0  9996
2 25105  86.3970 349.1305 0012133  23.9130 336.2630 14.40732113352011
IRIDIUM 51 [-]          
1 25262U 98018A   23264.40576828  .00018344  00000+0  10235-2 0  9992
2 25262  86.3985 358.6757 0169402  90.5789 271.4857 15.01924944351023
